[{"OBJECT_NAME":"STARLINK-35010","OBJECT_ID":"2025-184J","EPOCH":"2026-03-09T16:37:03.145728","MEAN_MOTION":15.05647472,"ECCENTRICITY":9.62e-6,"INCLINATION":97.6041,"RA_OF_ASC_NODE":122.6981,"ARG_OF_PERICENTER":282.6242,"MEAN_ANOMALY":77.4974,"EPHEMERIS_TYPE":0,"CLASSIFICATION_TYPE":"U","NORAD_CAT_ID":65281,"ELEMENT_SET_NO":999,"REV_AT_EPOCH":3130,"BSTAR":0.00036660539,"MEAN_MOTION_DOT":5.233e-5,"MEAN_MOTION_DDOT":0},{"OBJECT_NAME":"CZ-6A DEB","OBJECT_ID":"2022-151EL","EPOCH":"2026-03-09T12:09:26.951616","MEAN_MOTION":14.86893831,"ECCENTRICITY":0.00944101,"INCLINATION":98.6325,"RA_OF_ASC_NODE":168.3306,"ARG_OF_PERICENTER":70.5159,"MEAN_ANOMALY":290.6224,"EPHEMERIS_TYPE":0,"CLASSIFICATION_TYPE":"U","NORAD_CAT_ID":54412,"ELEMENT_SET_NO":999,"REV_AT_EPOCH":17774,"BSTAR":0.0014840705,"MEAN_MOTION_DOT":0.00014338,"MEAN_MOTION_DDOT":0}]
